{"type":"FeatureCollection","name":"spa-travel-public","properties":{"note":"Публичный слой содержит только редакционно проверенные или опубликованные объекты.","expectedCounts":{"poi":22,"accommodation_zone":6}},"features":[{"type":"Feature","geometry":{"type":"MultiPolygon","coordinates":[[[[5.921657025,50.588527621],[5.92006291,50.58119698],[5.916254131,50.574205081],[5.910377867,50.567820399],[5.902660429,50.562287996],[5.893398489,50.557820145],[5.882947667,50.554588229],[5.871708908,50.552716198],[5.860113183,50.552275846],[5.84860506,50.553284074],[5.837625787,50.555702242],[5.827596479,50.55943764],[5.818902066,50.564347017],[5.81187657,50.570242041],[5.806790284,50.576896486],[5.803839342,50.584054874],[5.803138078,50.591442263],[5.80471449,50.598774783],[5.808509005,50.605770541],[5.814376618,50.612160477],[5.822092335,50.61769873],[5.831359744,50.622172133],[5.841822395,50.625408461],[5.85307754,50.627283091],[5.864691715,50.627723833],[5.876217541,50.626713728],[5.887211077,50.6242917],[5.897249035,50.620551047],[5.90594517,50.615635821],[5.912965196,50.609735244],[5.918039654,50.603076388],[5.92097421,50.5959154],[5.921657025,50.588527621]]]]},"properties":{"id":"spa-stay-verviers","name":"Вервье","bestFor":["общественный транспорт","бюджетное размещение","длительная поездка"],"priority":85,"advantages":["узловой вокзал Вервье-Центральный","больше городских сервисов"],"hotelCount":5,"featureType":"accommodation_zone","reviewStatus":"reviewed","disadvantages":["дальше от трассы","зависимость от расписания трансфера"],"exampleHotels":["Hôtel Van der Valk Verviers","Hôtel des Ardennes","Ferme du Petit Breuil","Hôtel Le Midi","Gite Le Préry"]}},{"type":"Feature","geometry":{"type":"MultiPolygon","coordinates":[[[[6.071991652,50.427841844],[6.071473241,50.422212932],[6.069246188,50.416756765],[6.065396614,50.411682934],[6.060072843,50.407186279],[6.053479645,50.403439423],[6.045870339,50.400586163],[6.037537065,50.398735976],[6.028799601,50.397959836],[6.019993145,50.398287507],[6.011455523,50.399706409],[6.003514293,50.402162098],[5.996474244,50.405560348],[5.990605739,50.409770747],[5.986134354,50.414631684],[5.983232202,50.41995653],[5.982011274,50.42554078],[5.98251907,50.431169898],[5.984736678,50.43662755],[5.988579416,50.441703916],[5.9939,50.44620377],[6.000494145,50.449954004],[6.008108388,50.452810305],[6.016449839,50.454662734],[6.025197472,50.455439975],[6.034014543,50.455112096],[6.042561611,50.45369171],[6.050509677,50.451233486],[6.057552914,50.447832037],[6.063420472,50.44361826],[6.067886919,50.438754282],[6.070780895,50.433427195],[6.071991652,50.427841844]]]]},"properties":{"id":"spa-stay-malmedy","name":"Мальмеди","bestFor":["автомобиль","рестораны","семья"],"priority":95,"advantages":["много повседневных сервисов","удобный доступ к восточной стороне трассы"],"hotelCount":19,"featureType":"accommodation_zone","reviewStatus":"reviewed","disadvantages":["в гоночные дни возможны пробки"],"exampleHotels":["А-Ви-Мамди","Отель «Ле-Флореаль»","Отель «Альбер I»","Отель «Сен-Жереон»","Отель «Цветущий сад»"]}},{"type":"Feature","geometry":{"type":"MultiPolygon","coordinates":[[[[5.915978789,50.490775013],[5.914654326,50.484665934],[5.911487897,50.478839009],[5.906601743,50.47351801],[5.900183975,50.468907215],[5.892481291,50.465183583],[5.883789485,50.462489992],[5.874442113,50.460929784],[5.864797747,50.460562814],[5.855226291,50.461403169],[5.846094877,50.463418629],[5.83775386,50.466531892],[5.830523441,50.470623524],[5.824681412,50.475536516],[5.820452493,50.481082282],[5.817999662,50.487047876],[5.817417823,50.493204146],[5.81873006,50.499314526],[5.821886641,50.505144124],[5.826766823,50.510468759],[5.833183404,50.515083602],[5.840889868,50.518811077],[5.849589845,50.521507719],[5.858948534,50.523069724],[5.868605641,50.523436963],[5.878189322,50.522595307],[5.887330585,50.520577175],[5.895677574,50.517460275],[5.90290918,50.513364595],[5.908747429,50.508447761],[5.912968177,50.502898943],[5.915409691,50.496931551],[5.915978789,50.490775013]]]]},"properties":{"id":"spa-stay-spa","name":"Спа","bestFor":["без автомобиля","отели","городская прогулка"],"priority":90,"advantages":["железнодорожная станция","широкий выбор размещения и ресторанов"],"hotelCount":20,"featureType":"accommodation_zone","reviewStatus":"reviewed","disadvantages":["до автодрома требуется отдельный трансфер"],"exampleHotels":["Van der Valk Hotel Spa","Villa Damseaux","La Villa Blanche","L’Étape Fagnarde","Parc des Sources"]}},{"type":"Feature","geometry":{"type":"MultiPolygon","coordinates":[[[[5.970539794,50.393101243],[5.969477203,50.388214467],[5.96694421,50.383554067],[5.963038512,50.37929904],[5.957910416,50.375612774],[5.951757035,50.372636781],[5.944814699,50.37048529],[5.937349904,50.369240869],[5.929649106,50.368951278],[5.922007783,50.369627636],[5.914719145,50.371243997],[5.908062935,50.373738344],[5.902294731,50.377014952],[5.897636159,50.380948049],[5.894266385,50.385386629],[5.892315201,50.390160229],[5.891858001,50.395085467],[5.892912816,50.39997308],[5.895439552,50.404635191],[5.899341467,50.408892541],[5.904468826,50.41258139],[5.910624632,50.415559831],[5.917572183,50.417713264],[5.925044191,50.418958823],[5.9327531,50.419248578],[5.940402198,50.418571383],[5.947697092,50.416953311],[5.954357087,50.41445664],[5.960126027,50.41117745],[5.964782174,50.407241904],[5.968146733,50.402801383],[5.970090705,50.398026644],[5.970539794,50.393101243]]]]},"properties":{"id":"spa-stay-stavelot","name":"Ставло","bestFor":["история","спокойный отдых","музей автоспорта"],"priority":92,"advantages":["близко к трассе и водопаду Коо","выразительная историческая среда"],"hotelCount":7,"featureType":"accommodation_zone","reviewStatus":"reviewed","disadvantages":["меньше вариантов позднего транспорта"],"exampleHotels":["Villa Louise","Boutique Hôtel Dufays","Кемпинг «О-Руж»","Auberge St-Remacle","Hôtel le Val d'Amblève"]}},{"type":"Feature","geometry":{"type":"MultiPolygon","coordinates":[[[[5.905005531,50.370362375],[5.904101,50.366173077],[5.901936361,50.362177107],[5.89859506,50.358527955],[5.894205661,50.355365759],[5.888936876,50.352811934],[5.882991082,50.350964518],[5.876596554,50.349894426],[5.86999873,50.349642733],[5.863450823,50.350219105],[5.857204142,50.351601427],[5.85149848,50.353736647],[5.846552945,50.356542808],[5.84255756,50.359912177],[5.839665963,50.363715374],[5.837989496,50.367806326],[5.837592883,50.372027868],[5.838491705,50.376217775],[5.840651746,50.380214997],[5.843990259,50.383865852],[5.848379105,50.387029943],[5.853649656,50.389585567],[5.859599268,50.391434412],[5.865999082,50.392505344],[5.872602856,50.392757162],[5.879156471,50.39218018],[5.885407751,50.390796607],[5.891116201,50.388659683],[5.896062288,50.385851628],[5.900055908,50.38248046],[5.902943687,50.378675834],[5.904614869,50.374584041],[5.905005531,50.370362375]]]]},"properties":{"id":"spa-stay-trois-ponts","name":"Труа-Пон","bestFor":["поезд","природа","спокойный отдых"],"priority":82,"advantages":["железнодорожная станция","удобно совместить этап с Коо"],"hotelCount":3,"featureType":"accommodation_zone","reviewStatus":"reviewed","disadvantages":["мало вариантов размещения"],"exampleHotels":["Camping de la Cascade","La Calmie","Beau Rivage"]}},{"type":"Feature","geometry":{"type":"MultiPolygon","coordinates":[[[[5.989174738,50.452365508],[5.988184785,50.44782804],[5.985827823,50.443501027],[5.982194734,50.439550669],[5.977425321,50.436128661],[5.971702906,50.433366383],[5.965247278,50.431369867],[5.958306267,50.430215743],[5.951146256,50.429948308],[5.944042003,50.43057783],[5.937266138,50.43208016],[5.931078745,50.434397648],[5.925717418,50.437441347],[5.921388152,50.441094417],[5.918257437,50.445216593],[5.916445842,50.449649557],[5.916023341,50.454223009],[5.917006568,50.458761202],[5.919358121,50.463089695],[5.922987941,50.467042062],[5.927756722,50.470466301],[5.93348124,50.473230695],[5.939941383,50.475228887],[5.946888637,50.476383993],[5.954055665,50.476651568],[5.961166644,50.476021319],[5.967947918,50.47451751],[5.97413858,50.472198014],[5.979500539,50.469152083],[5.983827703,50.465496899],[5.986953901,50.461373046],[5.988759254,50.4569391],[5.989174738,50.452365508]]]]},"properties":{"id":"spa-stay-francorchamps","name":"Франкоршам","bestFor":["короткий путь до трассы","кемпинг","атмосфера этапа"],"priority":100,"advantages":["можно добраться до части входов пешком","максимальное погружение в гоночный уик-энд"],"hotelCount":12,"featureType":"accommodation_zone","reviewStatus":"reviewed","disadvantages":["ограниченный выбор жилья","шум и плотный трафик"],"exampleHotels":["Гостевой дом «Утро в саду»","Дом ароматов","Отель «Теро Лодж»","Entre Nature et Circuit","L'Acqua Rossa"]}},{"type":"Feature","geometry":{"type":"Point","coordinates":[5.9315352,50.3938119]},"properties":{"id":"osm-way-1418726543","name":"Аббатство Ставло","role":"explore","zones":[],"category":"heritage","featured":true,"priority":96,"featureType":"poi","reviewStatus":"reviewed"}},{"type":"Feature","geometry":{"type":"Point","coordinates":[4.4858042,50.9009305]},"properties":{"id":"osm-way-370594935","name":"Аэропорт Брюссель","role":"transport","zones":[],"category":"airport","featured":true,"priority":100,"featureType":"poi","reviewStatus":"reviewed"}},{"type":"Feature","geometry":{"type":"Point","coordinates":[4.4594573,50.4636393]},"properties":{"id":"osm-way-63223157","name":"Аэропорт Брюссель-Шарлеруа","role":"transport","zones":[],"category":"airport","featured":true,"priority":98,"featureType":"poi","reviewStatus":"reviewed"}},{"type":"Feature","geometry":{"type":"Point","coordinates":[6.7683825,51.2870984]},"properties":{"id":"osm-way-143269312","name":"Аэропорт Дюссельдорф","role":"transport","zones":[],"category":"airport","featured":true,"priority":94,"featureType":"poi","reviewStatus":"reviewed"}},{"type":"Feature","geometry":{"type":"Point","coordinates":[7.1420456,50.8678654]},"properties":{"id":"osm-relation-2269304","name":"Аэропорт Кёльн/Бонн","role":"transport","zones":[],"category":"airport","featured":true,"priority":96,"featureType":"poi","reviewStatus":"reviewed"}},{"type":"Feature","geometry":{"type":"Point","coordinates":[6.0868833,50.4782885]},"properties":{"id":"osm-node-2292957653","name":"Водопад Байон","role":"explore","zones":[],"category":"attraction","featured":true,"priority":96,"featureType":"poi","reviewStatus":"reviewed"}},{"type":"Feature","geometry":{"type":"Point","coordinates":[5.8766351,50.3935946]},"properties":{"id":"osm-node-5771053254","name":"Водопад Коо","role":"explore","zones":[],"category":"viewpoint","featured":true,"priority":96,"featureType":"poi","reviewStatus":"reviewed"}},{"type":"Feature","geometry":{"type":"Point","coordinates":[5.8551021,50.5883259]},"properties":{"id":"osm-node-26446051","name":"Вокзал Вервье-Центральный","role":"transport","zones":[],"category":"railway_station","featured":true,"priority":100,"featureType":"poi","reviewStatus":"reviewed"}},{"type":"Feature","geometry":{"type":"Point","coordinates":[5.567065,50.624728]},"properties":{"id":"osm-node-5307127700","name":"Вокзал Льеж-Гийемен","role":"transport","zones":[],"category":"railway_station","featured":true,"priority":100,"featureType":"poi","reviewStatus":"reviewed"}},{"type":"Feature","geometry":{"type":"Point","coordinates":[6.0913818,50.7677663]},"properties":{"id":"osm-node-3070631211","name":"Главный вокзал Ахена","role":"transport","zones":[],"category":"railway_station","featured":true,"priority":80,"featureType":"poi","reviewStatus":"reviewed"}},{"type":"Feature","geometry":{"type":"Point","coordinates":[6.1024071,50.4525864]},"properties":{"id":"osm-way-105586318","name":"Замок Рейнхардштайн","role":"explore","zones":[],"category":"heritage","featured":true,"priority":96,"featureType":"poi","reviewStatus":"reviewed"}},{"type":"Feature","geometry":{"type":"Point","coordinates":[5.8240262,50.5276053]},"properties":{"id":"osm-relation-17885242","name":"Замок Франшимон","role":"explore","zones":[],"category":"heritage","featured":true,"priority":96,"featureType":"poi","reviewStatus":"reviewed"}},{"type":"Feature","geometry":{"type":"Point","coordinates":[5.8658498,50.4919658]},"properties":{"id":"osm-way-89341118","name":"Казино Спа","role":"explore","zones":[],"category":"attraction","featured":true,"priority":96,"featureType":"poi","reviewStatus":"reviewed"}},{"type":"Feature","geometry":{"type":"Point","coordinates":[6.0274894,50.4270855]},"properties":{"id":"osm-node-2018449851","name":"Малмундариум","role":"explore","zones":[],"category":"museum","featured":true,"priority":96,"featureType":"poi","reviewStatus":"reviewed"}},{"type":"Feature","geometry":{"type":"Point","coordinates":[5.9322176,50.393728]},"properties":{"id":"osm-node-1931226811","name":"Музей трассы Спа-Франкоршам","role":"explore","zones":[],"category":"museum","featured":true,"priority":96,"featureType":"poi","reviewStatus":"reviewed"}},{"type":"Feature","geometry":{"type":"Point","coordinates":[5.7121091,50.4802072]},"properties":{"id":"osm-node-1489845082","name":"Пещеры Ремушам","role":"explore","zones":[],"category":"attraction","featured":true,"priority":96,"featureType":"poi","reviewStatus":"reviewed"}},{"type":"Feature","geometry":{"type":"Point","coordinates":[6.0995478,50.4934686]},"properties":{"id":"osm-relation-1346961","name":"Природный центр Ботранж","role":"essential","zones":[],"category":"tourist_information","featured":true,"priority":96,"featureType":"poi","reviewStatus":"reviewed"}},{"type":"Feature","geometry":{"type":"Point","coordinates":[6.0925502,50.5015831]},"properties":{"id":"osm-node-1955780257","name":"Сигнал-де-Ботранж","role":"explore","zones":[],"category":"nature","featured":true,"priority":96,"featureType":"poi","reviewStatus":"reviewed"}},{"type":"Feature","geometry":{"type":"Point","coordinates":[5.8555278,50.490188]},"properties":{"id":"osm-node-4021608030","name":"Станция Спа","role":"transport","zones":[],"category":"railway_station","featured":true,"priority":92,"featureType":"poi","reviewStatus":"reviewed"}},{"type":"Feature","geometry":{"type":"Point","coordinates":[5.867001,50.4892874]},"properties":{"id":"osm-node-4021608031","name":"Станция Спа-Жеронстер","role":"transport","zones":[],"category":"railway_station","featured":true,"priority":82,"featureType":"poi","reviewStatus":"reviewed"}},{"type":"Feature","geometry":{"type":"Point","coordinates":[5.8730278,50.3691636]},"properties":{"id":"osm-node-4333858841","name":"Станция Труа-Пон","role":"transport","zones":[],"category":"railway_station","featured":true,"priority":90,"featureType":"poi","reviewStatus":"reviewed"}},{"type":"Feature","geometry":{"type":"Point","coordinates":[5.9679128,50.4369672]},"properties":{"id":"osm-way-234804574","name":"Трасса Спа-Франкоршам","role":"circuit","zones":[],"category":"motorsport","featured":true,"priority":96,"featureType":"poi","reviewStatus":"reviewed"}}]}
